OBJECT_NAME,OBJECT_ID,EPOCH,MEAN_MOTION,ECCENTRICITY,INCLINATION,RA_OF_ASC_NODE,ARG_OF_PERICENTER,MEAN_ANOMALY,EPHEMERIS_TYPE,CLASSIFICATION_TYPE,NORAD_CAT_ID,ELEMENT_SET_NO,REV_AT_EPOCH,BSTAR,MEAN_MOTION_DOT,MEAN_MOTION_DDOT
STARLINK-37321,2026-114S,2026-06-09T11:21:01.742976,15.80896956,.00010029,53.1594,240.7756,70.9112,289.2020,0,U,69198,999,355,.65298335E-3,.130283E-2,0
STARLINK-37406,2026-114T,2026-06-09T11:19:56.917920,15.80926003,.00010055,53.1587,240.7693,51.1340,308.9772,0,U,69199,999,355,.11202196E-2,.226855E-2,0
STARLINK-37761,2026-114U,2026-06-09T11:18:52.235424,15.80934906,.00014198,53.1587,240.7641,43.3348,316.7786,0,U,69200,999,355,.11592681E-2,.23511E-2,0
STARLINK-37754,2026-114V,2026-06-09T11:17:30.605568,15.80902199,.00009024,53.1589,240.7589,82.7671,277.3454,0,U,69201,999,355,.74143174E-3,.148375E-2,0
STARLINK-37649,2026-114W,2026-06-09T12:47:44.765664,15.80888848,.00010471,53.1588,240.4385,49.0366,311.0748,0,U,69202,999,356,.52114984E-3,.103475E-2,0
STARLINK-37604,2026-114X,2026-06-09T12:46:39.941472,15.80905420,.00011726,53.1586,240.4328,41.5244,318.5868,0,U,69203,999,356,.79030917E-3,.158412E-2,0
STARLINK-37669,2026-114Y,2026-06-09T11:14:32.896320,15.80906744,.00010014,53.1587,240.7447,63.0478,297.0647,0,U,69204,999,355,.80132186E-3,.160681E-2,0
STARLINK-37691,2026-114Z,2026-06-09T14:00:04.000032,15.78094946,.00013037,53.1592,240.1795,70.6578,218.9326,0,U,69205,999,359,-.38742935E-3,-.67529E-3,0
STARLINK-37671,2026-114AA,2026-06-09T11:12:23.272992,15.80931270,.00011542,53.1583,240.7335,51.2281,308.8845,0,U,69206,999,355,.11141403E-2,.225642E-2,0
STARLINK-37647,2026-114AB,2026-06-09T12:44:30.284448,15.80913626,.00010564,53.1584,240.4230,48.6509,311.4604,0,U,69207,999,356,.84665259E-3,.170051E-2,0
STARLINK-37562,2026-114AC,2026-06-09T12:41:15.836928,15.80899289,.00010341,53.1584,240.4067,55.0403,305.0716,0,U,69208,999,356,.66834604E-3,.133428E-2,0
STARLINK-37682,2026-114AD,2026-06-09T11:09:08.853120,15.80892058,.0001045,53.1585,240.7189,72.3938,287.7199,0,U,69209,999,355,.59067876E-3,.117584E-2,0
STARLINK-37402,2026-114AE,2026-06-09T12:39:06.235200,15.80902033,.00009699,53.1583,240.3966,75.4999,284.6131,0,U,69210,999,356,.7365005E-3,.147365E-2,0
STARLINK-37613,2026-115A,2026-06-09T14:00:04.000032,15.64922897,.00012682,97.2849,177.5890,105.3587,214.4706,0,U,69211,999,347,-.29435674E-1,-.2506661E-1,0
STARLINK-37713,2026-115B,2026-06-09T14:00:04.000032,15.77070117,.00015622,97.2841,177.6264,87.4011,319.5622,0,U,69212,999,347,-.18399782E-1,-.2543064E-1,0
STARLINK-37716,2026-115C,2026-06-09T12:16:44.590944,15.80874342,.00013041,97.2829,177.5525,87.2644,272.8774,0,U,69213,999,347,.95545167E-3,.187354E-2,0
STARLINK-37620,2026-115D,2026-06-09T14:00:04.000032,15.60552979,.00017787,97.2850,177.5753,102.4218,177.2630,0,U,69214,999,347,-.34189627E-1,-.24597E-1,0
STARLINK-37700,2026-115E,2026-06-09T14:00:04.000032,15.49626212,.00011921,97.2850,177.5010,108.6848,1.0039,0,U,69215,999,347,-.13417325E-1,-.68034E-2,0
STARLINK-37766,2026-115F,2026-06-09T12:12:24.742080,15.80892718,.00013276,97.2827,177.5560,114.8347,245.3060,0,U,69216,999,347,.11406589E-2,.224859E-2,0
STARLINK-37763,2026-115G,2026-06-09T09:09:18.859392,15.80151400,.00004184,97.2827,177.4226,6.8216,353.3057,0,U,69217,999,345,-.35912721E-2,-.62182E-2,0
STARLINK-37724,2026-115H,2026-06-09T12:10:17.846400,15.80869483,.00014181,97.2831,177.5583,79.7538,280.3890,0,U,69218,999,347,.1014014E-2,.199072E-2,0
STARLINK-37758,2026-115J,2026-06-09T12:05:40.388352,15.80895764,.00011647,97.2827,177.5628,97.6614,262.4787,0,U,69219,999,347,.11861569E-2,.234116E-2,0
STARLINK-37201,2026-115K,2026-06-09T12:07:27.022368,15.80914158,.00011213,97.2833,177.5612,111.7004,248.4384,0,U,69220,999,347,.13841725E-2,.274743E-2,0
STARLINK-37728,2026-115L,2026-06-09T12:03:58.114944,15.80891015,.00010258,97.2831,177.5649,102.9703,257.1680,0,U,69221,999,347,.11490628E-2,.226543E-2,0
STARLINK-37760,2026-115M,2026-06-09T12:07:55.128288,15.80890755,.0001429,97.2832,177.5611,109.2413,250.9010,0,U,69222,999,347,.11874849E-2,.234331E-2,0
STARLINK-37759,2026-115N,2026-06-09T12:02:56.363136,15.80846876,.00014062,97.2831,177.5655,70.7273,289.4147,0,U,69223,999,347,.705531E-3,.137342E-2,0
STARLINK-37725,2026-115P,2026-06-09T09:01:11.638560,15.82595982,.0007062,97.2836,177.4304,327.9132,32.1706,0,U,69224,999,345,.12866231E-1,.3137971E-1,0
STARLINK-37770,2026-115Q,2026-06-09T12:04:37.404480,15.80895689,.0001162,97.2832,177.5637,86.2696,273.8705,0,U,69225,999,347,.12168587E-2,.240353E-2,0
STARLINK-37736,2026-115R,2026-06-09T07:30:08.183808,15.80894884,.00009176,97.2833,177.3640,31.1114,329.0209,0,U,69226,999,344,.16463533E-2,.328573E-2,0
STARLINK-37737,2026-115S,2026-06-09T12:00:43.574112,15.80874219,.00012775,97.2829,177.5670,100.9262,259.2150,0,U,69227,999,347,.10564523E-2,.207659E-2,0
