STARLINK-37321          
1 69198U 26114S   26160.47293684  .00130283  00000+0  65298-3 0  9994
2 69198  53.1594 240.7756 0001002  70.9112 289.2020 15.80896956  3559
STARLINK-37406          
1 69199U 26114T   26160.47218655  .00226855  00000+0  11202-2 0  9996
2 69199  53.1587 240.7693 0001005  51.1340 308.9772 15.80926003  3559
STARLINK-37761          
1 69200U 26114U   26160.47143791  .00235110  00000+0  11593-2 0  9994
2 69200  53.1587 240.7641 0001419  43.3348 316.7786 15.80934906  3558
STARLINK-37754          
1 69201U 26114V   26160.47049312  .00148375  00000+0  74143-3 0  9996
2 69201  53.1589 240.7589 0000902  82.7671 277.3454 15.80902199  3557
STARLINK-37649          
1 69202U 26114W   26160.53315701  .00103475  00000+0  52115-3 0  9999
2 69202  53.1588 240.4385 0001047  49.0366 311.0748 15.80888848  3563
STARLINK-37604          
1 69203U 26114X   26160.53240673  .00158412  00000+0  79031-3 0  9992
2 69203  53.1586 240.4328 0001172  41.5244 318.5868 15.80905420  3561
STARLINK-37669          
1 69204U 26114Y   26160.46843630  .00160681  00000+0  80132-3 0  9992
2 69204  53.1587 240.7447 0001001  63.0478 297.0647 15.80906744  3552
STARLINK-37691          
1 69205U 26114Z   26160.58337963 -.00067529  00000+0 -38743-3 0  9993
2 69205  53.1592 240.1795 0001303  70.6578 218.9326 15.78094946  3598
STARLINK-37671          
1 69206U 26114AA  26160.46693603  .00225642  00000+0  11141-2 0  9999
2 69206  53.1583 240.7335 0001154  51.2281 308.8845 15.80931270  3559
STARLINK-37647          
1 69207U 26114AB  26160.53090607  .00170051  00000+0  84665-3 0  9998
2 69207  53.1584 240.4230 0001056  48.6509 311.4604 15.80913626  3565
STARLINK-37562          
1 69208U 26114AC  26160.52865552  .00133428  00000+0  66835-3 0  9993
2 69208  53.1584 240.4067 0001034  55.0403 305.0716 15.80899289  3566
STARLINK-37682          
1 69209U 26114AD  26160.46468580  .00117584  00000+0  59068-3 0  9992
2 69209  53.1585 240.7189 0001045  72.3938 287.7199 15.80892058  3550
STARLINK-37402          
1 69210U 26114AE  26160.52715550  .00147365  00000+0  73650-3 0  9996
2 69210  53.1583 240.3966 0000969  75.4999 284.6131 15.80902033  3562
STARLINK-37613          
1 69211U 26115A   26160.58337963 -.02506661  00000+0 -29436-1 0  9995
2 69211  97.2849 177.5890 0001268 105.3587 214.4706 15.64922897  3474
STARLINK-37713          
1 69212U 26115B   26160.58337963 -.02543064  00000+0 -18400-1 0  9993
2 69212  97.2841 177.6264 0001562  87.4011 319.5622 15.77070117  3479
STARLINK-37716          
1 69213U 26115C   26160.51162721  .00187354  00000+0  95545-3 0  9994
2 69213  97.2829 177.5525 0001304  87.2644 272.8774 15.80874342  3474
STARLINK-37620          
1 69214U 26115D   26160.58337963 -.02459700  00000+0 -34190-1 0  9992
2 69214  97.2850 177.5753 0001778 102.4218 177.2630 15.60552979  3470
STARLINK-37700          
1 69215U 26115E   26160.58337963 -.00680340  00000+0 -13417-1 0  9996
2 69215  97.2850 177.5010 0001192 108.6848   1.0039 15.49626212  3470
STARLINK-37766          
1 69216U 26115F   26160.50861970  .00224859  00000+0  11407-2 0  9994
2 69216  97.2827 177.5560 0001327 114.8347 245.3060 15.80892718  3476
STARLINK-37763          
1 69217U 26115G   26160.38146828 -.00621820  00000+0 -35913-2 0  9998
2 69217  97.2827 177.4226 0000418   6.8216 353.3057 15.80151400  3450
STARLINK-37724          
1 69218U 26115H   26160.50715100  .00199072  00000+0  10140-2 0  9990
2 69218  97.2831 177.5583 0001418  79.7538 280.3890 15.80869483  3473
STARLINK-37758          
1 69219U 26115J   26160.50393968  .00234116  00000+0  11862-2 0  9996
2 69219  97.2827 177.5628 0001164  97.6614 262.4787 15.80895764  3478
STARLINK-37201          
1 69220U 26115K   26160.50517387  .00274743  00000+0  13842-2 0  9991
2 69220  97.2833 177.5612 0001121 111.7004 248.4384 15.80914158  3470
STARLINK-37728          
1 69221U 26115L   26160.50275596  .00226543  00000+0  11491-2 0  9998
2 69221  97.2831 177.5649 0001025 102.9703 257.1680 15.80891015  3472
STARLINK-37760          
1 69222U 26115M   26160.50549917  .00234331  00000+0  11875-2 0  9990
2 69222  97.2832 177.5611 0001429 109.2413 250.9010 15.80890755  3477
STARLINK-37759          
1 69223U 26115N   26160.50204124  .00137342  00000+0  70553-3 0  9992
2 69223  97.2831 177.5655 0001406  70.7273 289.4147 15.80846876  3479
STARLINK-37725          
1 69224U 26115P   26160.37582915  .03137971  00000+0  12866-1 0  9997
2 69224  97.2836 177.4304 0007062 327.9132  32.1706 15.82595982  3453
STARLINK-37770          
1 69225U 26115Q   26160.50321070  .00240353  00000+0  12169-2 0  9999
2 69225  97.2832 177.5637 0001162  86.2696 273.8705 15.80895689  3475
STARLINK-37736          
1 69226U 26115R   26160.31259472  .00328573  00000+0  16464-2 0  9998
2 69226  97.2833 177.3640 0000917  31.1114 329.0209 15.80894884  3446
STARLINK-37737          
1 69227U 26115S   26160.50050433  .00207659  00000+0  10565-2 0  9993
2 69227  97.2829 177.5670 0001277 100.9262 259.2150 15.80874219  3478
